{
    "links": {
        "self": "http://www.neowsapp.com/rest/v1/neo/3719729?api_key=iIulBulltgU6a56xZRHN4H3l9WmuAYTsLGpBGhQ2"
    },
    "id": "3719729",
    "neo_reference_id": "3719729",
    "name": "(2015 KA57)",
    "designation": "2015 KA57",
    "nasa_jpl_url": "http://ssd.jpl.nasa.gov/sbdb.cgi?sstr=3719729",
    "absolute_magnitude_h": 23.9,
    "estimated_diameter": {
        "kilometers": {
            "estimated_diameter_min": 0.04411182,
            "estimated_diameter_max": 0.0986370281
        },
        "meters": {
            "estimated_diameter_min": 44.1118199997,
            "estimated_diameter_max": 98.6370281305
        },
        "miles": {
            "estimated_diameter_min": 0.0274098057,
            "estimated_diameter_max": 0.0612901888
        },
        "feet": {
            "estimated_diameter_min": 144.7238235278,
            "estimated_diameter_max": 323.6123073718
        }
    },
    "is_potentially_hazardous_asteroid": false,
    "close_approach_data": [
        {
            "close_approach_date": "2015-06-01",
            "close_approach_date_full": "2015-Jun-01 18:12",
            "epoch_date_close_approach": 1433182320000,
            "relative_velocity": {
                "kilometers_per_second": "3.0812704934",
                "kilometers_per_hour": "11092.5737762714",
                "miles_per_hour": "6892.493966706"
            },
            "miss_distance": {
                "astronomical": "0.2536892767",
                "lunar": "98.6851286363",
                "kilometers": "37951375.436160629",
                "miles": "23581891.1892055202"
            },
            "orbiting_body": "Earth"
        }
    ],
    "orbital_data": {
        "orbit_id": "6",
        "orbit_determination_date": "2017-05-15 14:05:35",
        "first_observation_date": "2015-05-21",
        "last_observation_date": "2015-05-24",
        "data_arc_in_days": 3,
        "observations_used": 18,
        "orbit_uncertainty": "9",
        "minimum_orbit_intersection": ".249106",
        "jupiter_tisserand_invariant": "3.305",
        "epoch_osculation": "2457165.5",
        "eccentricity": ".4898279711762133",
        "semi_major_axis": "2.473741789546732",
        "inclination": "1.525576070613017",
        "ascending_node_longitude": "197.1327565854237",
        "orbital_period": "1421.117460864261",
        "perihelion_distance": "1.262033867559241",
        "perihelion_argument": "53.83527678036005",
        "aphelion_distance": "3.685449711534223",
        "perihelion_time": "2457178.257287866762",
        "mean_anomaly": "356.7683011724862",
        "mean_motion": ".2533217766398168",
        "equinox": "J2000",
        "orbit_class": {
            "orbit_class_type": "AMO",
            "orbit_class_description": "Near-Earth asteroid orbits similar to that of 1221 Amor",
            "orbit_class_range": "1.017 AU < q (perihelion) < 1.3 AU"
        }
    },
    "is_sentry_object": false
}